{
"type": "FeatureCollection",
"name": "PL_LOTE_01",
"crs": { "type": "name", "properties": { "name": "urn:ogc:def:crs:OGC:1.3:CRS84" } },
"features": [
{ "type": "Feature", "properties": { "FID": 0 }, "geometry": { "type": "MultiPolygon", "coordinates": [ [ [ [ -45.701241, -12.666298 ], [ -45.701201, -12.666339 ], [ -45.701191, -12.666356 ], [ -45.701188, -12.666372 ], [ -45.701193, -12.666393 ], [ -45.701211, -12.666438 ], [ -45.701382, -12.666765 ], [ -45.701448, -12.666901 ], [ -45.701569, -12.667179 ], [ -45.701692, -12.667506 ], [ -45.70176, -12.667713 ], [ -45.701826, -12.667951 ], [ -45.701919, -12.668358 ], [ -45.701967, -12.668642 ], [ -45.702001, -12.668919 ], [ -45.702027, -12.66928 ], [ -45.70203, -12.669625 ], [ -45.702019, -12.669882 ], [ -45.701987, -12.670252 ], [ -45.701971, -12.670374 ], [ -45.701897, -12.670814 ], [ -45.701814, -12.67116 ], [ -45.701773, -12.671305 ], [ -45.701665, -12.671634 ], [ -45.70159, -12.67183 ], [ -45.701435, -12.67219 ], [ -45.701224, -12.672603 ], [ -45.701127, -12.67277 ], [ -45.700923, -12.673084 ], [ -45.700702, -12.673384 ], [ -45.700457, -12.67368 ], [ -45.700121, -12.674035 ], [ -45.700008, -12.674141 ], [ -45.699686, -12.674427 ], [ -45.699677, -12.674452 ], [ -45.699677, -12.67447 ], [ -45.699684, -12.674491 ], [ -45.699716, -12.674527 ], [ -45.700021, -12.674785 ], [ -45.704005, -12.678121 ], [ -45.704341, -12.678398 ], [ -45.704445, -12.678476 ], [ -45.704477, -12.678512 ], [ -45.704494, -12.678539 ], [ -45.704504, -12.678588 ], [ -45.704497, -12.678637 ], [ -45.704489, -12.678656 ], [ -45.704466, -12.678686 ], [ -45.704431, -12.678723 ], [ -45.704191, -12.678939 ], [ -45.703883, -12.679227 ], [ -45.703772, -12.679353 ], [ -45.703722, -12.679424 ], [ -45.703698, -12.679481 ], [ -45.703693, -12.679508 ], [ -45.703694, -12.679545 ], [ -45.703707, -12.679593 ], [ -45.703733, -12.67964 ], [ -45.703756, -12.679671 ], [ -45.703823, -12.679736 ], [ -45.704062, -12.679908 ], [ -45.704294, -12.680091 ], [ -45.704697, -12.680391 ], [ -45.70506, -12.68064 ], [ -45.705169, -12.680706 ], [ -45.705271, -12.680757 ], [ -45.705367, -12.680789 ], [ -45.705438, -12.680798 ], [ -45.705763, -12.680798 ], [ -45.706157, -12.68081 ], [ -45.706584, -12.680799 ], [ -45.706637, -12.680805 ], [ -45.706689, -12.680823 ], [ -45.706759, -12.68086 ], [ -45.706802, -12.680897 ], [ -45.706833, -12.680932 ], [ -45.706884, -12.681021 ], [ -45.706905, -12.681113 ], [ -45.706907, -12.681169 ], [ -45.7069, -12.681231 ], [ -45.70688, -12.681314 ], [ -45.706816, -12.681478 ], [ -45.706774, -12.681623 ], [ -45.70676, -12.681731 ], [ -45.706764, -12.681799 ], [ -45.706783, -12.68187 ], [ -45.706805, -12.681914 ], [ -45.706829, -12.681949 ], [ -45.706859, -12.681981 ], [ -45.706947, -12.682052 ], [ -45.70706, -12.682111 ], [ -45.707133, -12.682136 ], [ -45.708093, -12.682434 ], [ -45.70829, -12.682513 ], [ -45.708372, -12.682551 ], [ -45.70948, -12.683123 ], [ -45.710145, -12.683474 ], [ -45.710772, -12.683812 ], [ -45.711232, -12.684032 ], [ -45.71149, -12.684145 ], [ -45.711711, -12.684231 ], [ -45.712035, -12.684349 ], [ -45.714286, -12.6851 ], [ -45.714742, -12.685269 ], [ -45.714808, -12.685285 ], [ -45.714847, -12.685288 ], [ -45.714894, -12.685286 ], [ -45.714951, -12.685268 ], [ -45.714989, -12.685248 ], [ -45.715035, -12.685215 ], [ -45.715095, -12.685164 ], [ -45.715318, -12.68495 ], [ -45.715542, -12.684746 ], [ -45.71563, -12.684674 ], [ -45.715801, -12.684548 ], [ -45.715869, -12.684492 ], [ -45.71609, -12.684275 ], [ -45.716154, -12.684198 ], [ -45.716264, -12.684099 ], [ -45.716612, -12.68375 ], [ -45.716838, -12.683536 ], [ -45.717073, -12.683329 ], [ -45.717526, -12.682913 ], [ -45.717698, -12.682764 ], [ -45.718502, -12.68202 ], [ -45.718725, -12.681867 ], [ -45.718755, -12.68185 ], [ -45.718859, -12.68181 ], [ -45.718944, -12.681741 ], [ -45.719061, -12.681624 ], [ -45.721931, -12.678939 ], [ -45.722042, -12.678826 ], [ -45.722075, -12.678788 ], [ -45.722112, -12.678733 ], [ -45.722123, -12.678704 ], [ -45.722127, -12.678674 ], [ -45.722122, -12.678643 ], [ -45.722102, -12.67861 ], [ -45.722073, -12.678582 ], [ -45.721937, -12.678467 ], [ -45.721656, -12.678244 ], [ -45.721437, -12.678048 ], [ -45.708421, -12.667127 ], [ -45.708054, -12.666822 ], [ -45.707976, -12.666764 ], [ -45.707925, -12.666735 ], [ -45.707906, -12.666729 ], [ -45.707878, -12.666725 ], [ -45.70784, -12.666729 ], [ -45.707764, -12.666758 ], [ -45.707632, -12.66682 ], [ -45.707452, -12.666894 ], [ -45.707145, -12.667009 ], [ -45.70701, -12.667053 ], [ -45.706713, -12.667141 ], [ -45.706334, -12.667233 ], [ -45.70619, -12.66726 ], [ -45.705855, -12.667312 ], [ -45.70558, -12.667344 ], [ -45.705444, -12.667355 ], [ -45.704985, -12.66737 ], [ -45.704615, -12.667359 ], [ -45.704139, -12.667315 ], [ -45.703942, -12.667284 ], [ -45.703623, -12.667221 ], [ -45.703305, -12.667147 ], [ -45.703014, -12.66706 ], [ -45.702835, -12.667004 ], [ -45.702444, -12.666855 ], [ -45.701997, -12.666648 ], [ -45.701809, -12.666545 ], [ -45.701497, -12.666363 ], [ -45.701336, -12.666259 ], [ -45.701294, -12.666248 ], [ -45.701273, -12.666254 ], [ -45.701239, -12.666281 ], [ -45.701217, -12.666306 ], [ -45.701241, -12.666298 ] ] ] ] } }
]
}
