{
"type": "FeatureCollection",
"name": "PL_PIVO_10B",
"crs": { "type": "name", "properties": { "name": "urn:ogc:def:crs:OGC:1.3:CRS84" } },
"features": [
{ "type": "Feature", "properties": { "FID": 0 }, "geometry": { "type": "MultiPolygon", "coordinates": [ [ [ [ -45.690336, -12.648073 ], [ -45.69024, -12.648183 ], [ -45.690065, -12.6484 ], [ -45.689938, -12.64857 ], [ -45.68971, -12.648904 ], [ -45.689626, -12.649043 ], [ -45.689505, -12.649254 ], [ -45.689429, -12.649394 ], [ -45.689373, -12.649509 ], [ -45.689222, -12.649848 ], [ -45.689121, -12.650103 ], [ -45.689058, -12.650284 ], [ -45.688971, -12.650574 ], [ -45.688873, -12.651004 ], [ -45.68883, -12.651244 ], [ -45.688786, -12.651604 ], [ -45.688762, -12.651953 ], [ -45.688761, -12.65225 ], [ -45.688768, -12.65251 ], [ -45.6888, -12.652867 ], [ -45.688828, -12.653089 ], [ -45.688882, -12.653402 ], [ -45.688924, -12.653587 ], [ -45.689019, -12.653942 ], [ -45.689127, -12.654278 ], [ -45.689182, -12.654426 ], [ -45.689311, -12.654734 ], [ -45.689394, -12.654913 ], [ -45.689558, -12.655223 ], [ -45.689725, -12.655506 ], [ -45.689898, -12.655766 ], [ -45.690087, -12.656017 ], [ -45.690253, -12.656221 ], [ -45.690454, -12.656441 ], [ -45.690632, -12.656625 ], [ -45.690774, -12.656762 ], [ -45.690823, -12.656801 ], [ -45.69082, -12.656805 ], [ -45.690829, -12.656814 ], [ -45.69091, -12.656885 ], [ -45.691132, -12.657067 ], [ -45.691424, -12.657288 ], [ -45.691677, -12.657459 ], [ -45.691994, -12.65765 ], [ -45.692224, -12.657774 ], [ -45.692394, -12.657856 ], [ -45.692568, -12.657934 ], [ -45.692887, -12.658062 ], [ -45.693109, -12.658143 ], [ -45.693398, -12.658226 ], [ -45.693919, -12.658358 ], [ -45.694059, -12.658384 ], [ -45.694354, -12.658428 ], [ -45.694665, -12.658458 ], [ -45.694968, -12.658476 ], [ -45.695286, -12.65848 ], [ -45.69543, -12.658476 ], [ -45.695648, -12.658462 ], [ -45.696022, -12.658423 ], [ -45.696294, -12.65838 ], [ -45.696534, -12.658333 ], [ -45.696969, -12.658229 ], [ -45.697346, -12.658105 ], [ -45.69764, -12.657994 ], [ -45.697759, -12.657943 ], [ -45.698041, -12.657809 ], [ -45.698312, -12.657669 ], [ -45.698506, -12.657558 ], [ -45.698677, -12.657452 ], [ -45.698831, -12.657349 ], [ -45.698972, -12.657249 ], [ -45.699181, -12.65709 ], [ -45.699323, -12.656977 ], [ -45.699625, -12.656705 ], [ -45.699795, -12.656533 ], [ -45.700007, -12.656301 ], [ -45.690336, -12.648073 ] ] ] ] } }
]
}
